STARLINK-2022           
1 47643U 21012Z   23282.60392113  .00038746  00000+0  26015-2 0  9995
2 47643  53.0541  51.4546 0001858  82.1244 277.9956 15.06460746147312
